start=new Date('2022-02-16T00:00:00.000Z').valueOf();
sats=[{"SITE":"AFETR","PERIAPSIS":"316.836","FILE":"3301463","CLASSIFICATION_TYPE":"U","ELEMENT_SET_NO":"999","BSTAR":"-0.00414520000000","OBJECT_NAME":"STARLINK-3174","MEAN_MOTION":"15.84554006","EPOCH":"2022-02-15T22:00:01.999584","ARG_OF_PERICENTER":"62.3449","MEAN_MOTION_DDOT":"0.0000000000000","MEAN_ELEMENT_THEORY":"SGP4","MEAN_ANOMALY":"79.7082","LAUNCH_DATE":"2022-02-03","SEMIMAJOR_AXIS":"6695.718","COUNTRY_CODE":"US","INCLINATION":"53.2176","DECAY_DATE":null,"PERIOD":"90.877","ECCENTRICITY":"0.00011150","EPHEMERIS_TYPE":"0","MEAN_MOTION_DOT":"-0.00880959","REF_FRAME":"TEME","GP_ID":"196062513","CENTER_NAME":"EARTH","APOAPSIS":"318.329","OBJECT_TYPE":"PAYLOAD","TIME_SYSTEM":"UTC","REV_AT_EPOCH":"244","OBJECT_ID":"2022-010N","RA_OF_ASC_NODE":"112.2283","TLE_LINE1":"1 51468U 22010N   22046.91668981 -.00880959  00000-0 -41452-2 0  9990","NORAD_CAT_ID":"51468","TLE_LINE2":"2 51468  53.2176 112.2283 0001115  62.3449  79.7082 15.84554006  2446","RCS_SIZE":"MEDIUM"},{"RA_OF_ASC_NODE":"112.3329","TLE_LINE1":"1 51469U 22010P   22046.91668981 -.00878576  00000-0 -44357-2 0  9990","NORAD_CAT_ID":"51469","TLE_LINE2":"2 51469  53.2176 112.3329 0000944  96.8909 349.6530 15.83081208  2446","RCS_SIZE":"MEDIUM","EPHEMERIS_TYPE":"0","MEAN_MOTION_DOT":"-0.00878576","REF_FRAME":"TEME","GP_ID":"196062006","APOAPSIS":"322.368","CENTER_NAME":"EARTH","OBJECT_TYPE":"PAYLOAD","TIME_SYSTEM":"UTC","REV_AT_EPOCH":"244","OBJECT_ID":"2022-010P","EPOCH":"2022-02-15T22:00:01.999584","ARG_OF_PERICENTER":"96.8909","MEAN_MOTION_DDOT":"0.0000000000000","MEAN_ELEMENT_THEORY":"SGP4","LAUNCH_DATE":"2022-02-03","MEAN_ANOMALY":"349.6530","COUNTRY_CODE":"US","INCLINATION":"53.2176","SEMIMAJOR_AXIS":"6699.870","ECCENTRICITY":"0.00009440","DECAY_DATE":null,"PERIOD":"90.962","SITE":"AFETR","PERIAPSIS":"321.103","FILE":"3301463","CLASSIFICATION_TYPE":"U","ELEMENT_SET_NO":"999","BSTAR":"-0.00443570000000","OBJECT_NAME":"STARLINK-3182","MEAN_MOTION":"15.83081208"},{"DECAY_DATE":null,"ECCENTRICITY":"0.00079450","PERIOD":"90.103","INCLINATION":"53.2172","COUNTRY_CODE":"US","SEMIMAJOR_AXIS":"6657.613","MEAN_ELEMENT_THEORY":"SGP4","MEAN_ANOMALY":"195.3674","LAUNCH_DATE":"2022-02-03","EPOCH":"2022-02-13T10:00:00.999936","ARG_OF_PERICENTER":"267.1673","MEAN_MOTION_DDOT":"0.0002530600000","BSTAR":"-0.00182390000000","OBJECT_NAME":"STARLINK-3165","MEAN_MOTION":"15.98177164","ELEMENT_SET_NO":"999","FILE":"3299685","CLASSIFICATION_TYPE":"U","SITE":"AFETR","PERIAPSIS":"274.189","RCS_SIZE":"MEDIUM","NORAD_CAT_ID":"51471","TLE_LINE2":"2 51471  53.2172 124.3996 0007945 267.1673 195.3674 15.98177164  2041","TLE_LINE1":"1 51471U 22010R   22044.41667824 -.00869411  25306-3 -18239-2 0  9998","RA_OF_ASC_NODE":"124.3996","REV_AT_EPOCH":"204","OBJECT_ID":"2022-010R","CENTER_NAME":"EARTH","GP_ID":"195897369","APOAPSIS":"284.768","OBJECT_TYPE":"PAYLOAD","TIME_SYSTEM":"UTC","REF_FRAME":"TEME","EPHEMERIS_TYPE":"0","MEAN_MOTION_DOT":"-0.00869411"},{"RCS_SIZE":"MEDIUM","NORAD_CAT_ID":"51472","TLE_LINE2":"2 51472  53.2176 112.2267 0001151  56.1741  86.6384 15.84548091  2448","RA_OF_ASC_NODE":"112.2267","TLE_LINE1":"1 51472U 22010S   22046.91668981 -.00880994  00000-0 -41465-2 0  9998","REV_AT_EPOCH":"244","OBJECT_ID":"2022-010S","GP_ID":"196062633","CENTER_NAME":"EARTH","APOAPSIS":"318.370","OBJECT_TYPE":"PAYLOAD","TIME_SYSTEM":"UTC","REF_FRAME":"TEME","EPHEMERIS_TYPE":"0","MEAN_MOTION_DOT":"-0.00880994","PERIOD":"90.878","DECAY_DATE":null,"ECCENTRICITY":"0.00011510","COUNTRY_CODE":"US","INCLINATION":"53.2176","SEMIMAJOR_AXIS":"6695.735","MEAN_ELEMENT_THEORY":"SGP4","MEAN_ANOMALY":"86.6384","LAUNCH_DATE":"2022-02-03","EPOCH":"2022-02-15T22:00:01.999584","ARG_OF_PERICENTER":"56.1741","MEAN_MOTION_DDOT":"0.0000000000000","BSTAR":"-0.00414650000000","OBJECT_NAME":"STARLINK-3415","MEAN_MOTION":"15.84548091","ELEMENT_SET_NO":"999","FILE":"3301463","CLASSIFICATION_TYPE":"U","SITE":"AFETR","PERIAPSIS":"316.829"}];
